QIANFAN-73              
1 63159U 25046A   25328.82983533  .00000036  00000+0  37371-4 0  9995
2 63159  88.9751 321.8783 0015122 168.6040 191.5456 13.50974053 44996
QIANFAN-74              
1 63160U 25046B   25328.88734361  .00000023  00000+0  17175-4 0  9992
2 63160  88.9751 321.7609 0001991  85.0390 275.0989 13.50976208 45065
QIANFAN-75              
1 63161U 25046C   25328.80059747  .00000119  00000+0  16498-3 0  9995
2 63161  88.9753 322.0033 0016134 172.2610 187.8793 13.50989645 44928
QIANFAN-76              
1 63162U 25046D   25328.79700163 -.00000130  00000+0 -22026-3 0  9998
2 63162  88.9748 321.9847 0013674 171.9368 188.2006 13.50964906 44932
QIANFAN-77              
1 63163U 25046E   25328.83900136  .00000189  00000+0  12791-3 0  9996
2 63163  88.9753 320.1338 0016262 131.1313 229.1270 13.96076884 45959
QIANFAN-78              
1 63164U 25046F   25328.83803937  .00000006  00000+0 -96690-5 0  9999
2 63164  88.9751 321.8444 0014974 174.5093 185.6225 13.50974645 45013
QIANFAN-79              
1 63165U 25046G   25328.79265630  .00000037  00000+0  38482-4 0  9994
2 63165  88.9755 321.9559 0014727 172.7858 187.3508 13.50975654 44957
QIANFAN-80              
1 63166U 25046H   25328.80915463  .00000075  00000+0  97422-4 0  9994
2 63166  88.9753 321.6614 0013570 176.6053 183.5193 13.50980130 45112
